      2.10          N: GNSS NAV DATA                        RINEX VERSION / TYPE
fic2rin                                 07/02/2023 00:17:58 PGM / RUN BY / DATE
                                                            END OF HEADER
6  23  7  1  1 59 44.0  .581673346460D-03 -.284217094304D-11  .000000000000D+00
     .120000000000D+02 -.951250000000D+02  .375908515241D-08  .123540465289D+01
    -.486895442009D-05  .269100430887D-02  .271014869213D-05  .515369640923D+04
     .525584000000D+06  .689178705215D-07  .175789946320D+01 -.186264514923D-07
     .989042590600D+00  .341062500000D+03 -.745809285836D+00 -.794997400547D-08
    -.807176479283D-10  .100000000000D+01  .226800000000D+04  .000000000000D+00
     .240000000000D+01  .000000000000D+00  .372529029846D-08  .120000000000D+02
     .518400000000D+06  .400000000000D+01
20 23  7  1 16  0  0.0  .425016973168D-03 -.204636307899D-11  .000000000000D+00
     .760000000000D+02 -.132656250000D+03  .445589989183D-08  .295757413847D+01
    -.706687569618D-05  .404315395281D-02  .881776213646D-05  .515358070946D+04
     .576000000000D+06 -.558793544769D-07  .262620800550D+01 -.167638063431D-07
     .949275835366D+00  .202718750000D+03 -.287721080381D+01 -.790247202682D-08
    -.128219626576D-09  .100000000000D+01  .226800000000D+04  .000000000000D+00
     .240000000000D+01  .000000000000D+00 -.838190317154D-08  .760000000000D+02
     .568800000000D+06  .400000000000D+01
13 23  7  1 16  0  0.0  .541425775737D-03  .500222085975D-11  .000000000000D+00
     .780000000000D+02  .114062500000D+02  .437589655937D-08 -.234482342692D+01
     .659376382828D-06  .711625011172D-02  .716559588909D-05  .515366134071D+04
     .576000000000D+06 -.186264514923D-08 -.230288846032D+01 -.521540641785D-07
     .969872076139D+00  .246937500000D+03  .911251305846D+00 -.767639118108D-08
     .467876631797D-09  .100000000000D+01  .226800000000D+04  .000000000000D+00
     .240000000000D+01  .000000000000D+00 -.111758708954D-07  .780000000000D+02
     .568800000000D+06  .400000000000D+01
19 23  7  1 16  0  0.0  .338049139827D-03  .511590769747D-11  .000000000000D+00
     .400000000000D+02  .104593750000D+03  .447875798682D-08  .141977927299D+00
     .545941293240D-05  .948909472208D-02  .263564288616D-05  .515363129997D+04
     .576000000000D+06 -.279396772385D-07  .806553373465D+00 -.689178705215D-07
     .972970343526D+00  .335218750000D+03  .233969927547D+01 -.834820487910D-08
     .322513433979D-09  .100000000000D+01  .226800000000D+04  .000000000000D+00
     .240000000000D+01  .000000000000D+00 -.153668224812D-07  .400000000000D+02
     .568800000000D+06  .400000000000D+01
17 23  7  1 16  0  0.0  .719954259694D-03  .102318153949D-11  .000000000000D+00
     .390000000000D+02  .124906250000D+03  .429910764652D-08 -.205106354740D+01
     .683777034283D-05  .135163917439D-01  .263564288616D-05  .515379321671D+04
     .576000000000D+06  .987201929092D-07  .762048721039D+00  .255182385445D-06
     .973926890067D+00  .334187500000D+03 -.140323623986D+01 -.795068832094D-08
     .356086260993D-09  .100000000000D+01  .226800000000D+04  .000000000000D+00
     .240000000000D+01  .000000000000D+00 -.111758708954D-07  .390000000000D+02
     .568800000000D+06  .400000000000D+01
18 23  7  1 16  0  0.0 -.329121947289D-03 -.145519152284D-10  .000000000000D+00
     .215000000000D+03 -.100156250000D+03  .456197573889D-08  .230480839401D+01
    -.507570803165D-05  .338712870143D-02  .108592212200D-05  .515367208481D+04
     .576000000000D+06 -.104308128357D-06  .176631015082D+01  .169500708580D-06
     .973725945103D+00  .367250000000D+03  .312036974991D+01 -.836141971526D-08
    -.188222125921D-09  .100000000000D+01  .226800000000D+04  .000000000000D+00
     .240000000000D+01  .000000000000D+00 -.838190317154D-08  .215000000000D+03
     .568800000000D+06  .400000000000D+01
11 23  7  1 16  0  0.0 -.257925596088D-03 -.156887836056D-10  .000000000000D+00
     .236000000000D+03 -.893750000000D+02  .462340686917D-08 -.254239975478D+01
    -.461190938950D-05  .875497004017D-03  .137463212013D-05  .515356120110D+04
     .576000000000D+06 -.428408384323D-07  .179804144229D+01 -.117346644402D-06
     .965284303600D+00  .353156250000D+03 -.287683520691D+01 -.835177645644D-08
    -.257153568621D-09  .100000000000D+01  .226800000000D+04  .000000000000D+00
     .240000000000D+01  .000000000000D+00 -.884756445885D-08  .748000000000D+03
     .568800000000D+06  .400000000000D+01
23 23  7  1 16  0  0.0  .386950559914D-04  .397903932026D-11  .000000000000D+00
     .270000000000D+02 -.125406250000D+03  .393659254631D-08  .125564452682D+01
    -.637769699097D-05  .331427168567D-02  .106301158667D-04  .515367279053D+04
     .576000000000D+06  .204890966415D-07  .276623178438D+01  .335276126862D-07
     .974683992598D+00  .180093750000D+03 -.310108064546D+01 -.768639159763D-08
    -.964325882329D-11  .100000000000D+01  .226800000000D+04  .000000000000D+00
     .240000000000D+01  .000000000000D+00 -.838190317154D-08  .539000000000D+03
     .568800000000D+06  .400000000000D+01
14 23  7  1 16  0  0.0  .108515378088D-03  .121644916362D-10  .000000000000D+00
     .152000000000D+03  .752812500000D+02  .447554356721D-08  .708472810576D+00
     .396557152271D-05  .332836469170D-02  .109560787678D-04  .515368309975D+04
     .576000000000D+06  .372529029846D-07 -.315956081616D+00  .141561031342D-06
     .948704352270D+00  .163343750000D+03 -.298265456694D+01 -.782354016757D-08
    -.247510309798D-09  .100000000000D+01  .226800000000D+04  .000000000000D+00
     .240000000000D+01  .000000000000D+00 -.791624188423D-08  .920000000000D+03
     .568800000000D+06  .400000000000D+01
22 23  7  1 16  0  0.0  .506362412125D-03  .568434188608D-11  .000000000000D+00
     .360000000000D+02  .953125000000D+01  .449232998072D-08 -.214117089076D+01
     .517815351486D-06  .143729961710D-01  .741705298424D-05  .515363883209D+04
     .576000000000D+06  .284984707832D-06 -.235821958575D+01 -.577419996262D-07
     .962802262659D+00  .238437500000D+03 -.179943416664D+01 -.757531554230D-08
     .476448417418D-09  .100000000000D+01  .226800000000D+04  .000000000000D+00
     .240000000000D+01  .630000000000D+02 -.838190317154D-08  .360000000000D+02
     .568800000000D+06  .400000000000D+01
8  23  7  1 15 59 44.0 -.130045227706D-03 -.181898940355D-11  .000000000000D+00
     .580000000000D+02  .146343750000D+03  .467233747875D-08 -.197908234273D+01
     .725686550140D-05  .847879564390D-02  .335276126862D-05  .515372181702D+04
     .575984000000D+06  .372529029846D-07  .672468794750D+00 -.188127160072D-06
     .958385429171D+00  .315250000000D+03  .270841632270D+00 -.829927426951D-08
     .436446751188D-09  .100000000000D+01  .226800000000D+04  .000000000000D+00
     .240000000000D+01  .000000000000D+00  .512227416039D-08  .580000000000D+02
     .571200000000D+06  .400000000000D+01
